{"fetched_at":"2026-03-29T16:36:15Z","count":15609,"tles":[{"name":"STARLINK-32160","line1":"1 60261U 24131G   26087.95070372  .00005934  00000+0  21248-3 0  9992","line2":"2 60261  53.1594 323.2403 0001129  66.3012 293.8107 15.30173289 94712","category":"Starlink"}]}